
# Worst residual: 9.47 km
# MJD 60264.000000 (2023 Nov 16  0:00)
1972-073A = IMP-7 = NORAD 06197
1 06197U 72073A   23320.49919926  .00000000  00000-0  00000-0 0 18148
2 06197 017.8406 107.0264 2933131 132.9181 309.5573 00.07967552    01

# Worst residual: 13.80 km
# MJD 60265.000000 (2023 Nov 17  0:00)
1972-073A = IMP-7 = NORAD 06197
1 06197U 72073A   23321.49919926  .00000000  00000-0  00000-0 0 18149
2 06197 017.9067 107.1328 2925917 132.6833 338.2298 00.07972925    04

# Worst residual: 12.00 km
# MJD 60266.000000 (2023 Nov 18  0:00)
1972-073A = IMP-7 = NORAD 06197
1 06197U 72073A   23322.49919926  .00000000  00000-0  00000-0 0 18140
2 06197 017.9133 107.2493 2937592 132.3909 006.9805 00.07950190    08

# Worst residual: 24.13 km
# MJD 60267.000000 (2023 Nov 19  0:00)
1972-073A = IMP-7 = NORAD 06197
1 06197U 72073A   23323.49919926  .00000000  00000-0  00000-0 0 18141
2 06197 017.9277 107.1723 2973983 132.8112 035.0280 00.07879515    08

# Worst residual: 52.39 km
# MJD 60268.000000 (2023 Nov 20  0:00)
1972-073A = IMP-7 = NORAD 06197
1 06197U 72073A   23324.49919926  .00000000  00000-0  00000-0 0 18142
2 06197 018.0196 107.1783 3039267 133.0154 062.3464 00.07801512    03

# Worst residual: 60.87 km
# MJD 60269.000000 (2023 Nov 21  0:00)
1972-073A = IMP-7 = NORAD 06197
1 06197U 72073A   23325.49919926  .00000000  00000-0  00000-0 0 18143
2 06197 018.0416 106.9444 3149465 131.2868 091.3276 00.07885968    03

# Worst residual: 40.41 km
# MJD 60270.000000 (2023 Nov 22  0:00)
1972-073A = IMP-7 = NORAD 06197
1 06197U 72073A   23326.49919926  .00000000  00000-0  00000-0 0 18144
2 06197 018.0592 106.1187 3270199 130.0042 121.5062 00.08032522    04

# Worst residual: 22.31 km
# MJD 60271.000000 (2023 Nov 23  0:00)
1972-073A = IMP-7 = NORAD 06197
1 06197U 72073A   23327.49919926  .00000000  00000-0  00000-0 0 18145
2 06197 018.1517 105.2887 3357531 129.8472 151.4541 00.08127330    04

# Worst residual: 16.81 km
# MJD 60272.000000 (2023 Nov 24  0:00)
1972-073A = IMP-7 = NORAD 06197
1 06197U 72073A   23328.49919926  .00000000  00000-0  00000-0 0 18146
2 06197 018.2806 104.6835 3416024 130.1450 181.0939 00.08182572    05

# Worst residual: 16.46 km
# MJD 60273.000000 (2023 Nov 25  0:00)
1972-073A = IMP-7 = NORAD 06197
1 06197U 72073A   23329.49919926  .00000000  00000-0  00000-0 0 18147
2 06197 018.4219 104.2602 3458766 130.6117 210.5449 00.08221665    08

# Worst residual: 16.49 km
# MJD 60274.000000 (2023 Nov 26  0:00)
1972-073A = IMP-7 = NORAD 06197
1 06197U 72073A   23330.49919926  .00000000  00000-0  00000-0 0 18149
2 06197 018.5738 103.9603 3491202 131.2032 239.8477 00.08257313    01

# Worst residual: 13.21 km
# MJD 60275.000000 (2023 Nov 27  0:00)
1972-073A = IMP-7 = NORAD 06197
1 06197U 72073A   23331.49919926  .00000000  00000-0  00000-0 0 18140
2 06197 018.7300 103.7809 3512471 131.8426 269.1006 00.08294593    04

# Worst residual: 8.87 km
# MJD 60276.000000 (2023 Nov 28  0:00)
1972-073A = IMP-7 = NORAD 06197
1 06197U 72073A   23332.49919926  .00000000  00000-0  00000-0 0 18141
2 06197 018.8703 103.7277 3519114 132.2680 298.5826 00.08323143    09

# Worst residual: 13.04 km
# MJD 60277.000000 (2023 Nov 29  0:00)
1972-073A = IMP-7 = NORAD 06197
1 06197U 72073A   23333.49919926  .00000000  00000-0  00000-0 0 18142
2 06197 018.9681 103.7877 3527373 132.0625 328.6675 00.08306291    06

# Worst residual: 34.84 km
# MJD 60278.000000 (2023 Nov 30  0:00)
1972-073A = IMP-7 = NORAD 06197
1 06197U 72073A   23334.49919926  .00000000  00000-0  00000-0 0 18143
2 06197 019.0043 103.9523 3578538 131.6076 358.7765 00.08200078    04

# Worst residual: 28.83 km
# MJD 60279.000000 (2023 Dec  1  0:00)
1972-073A = IMP-7 = NORAD 06197
1 06197U 72073A   23335.49919926  .00000000  00000-0  00000-0 0 18144
2 06197 018.9601 103.9537 3611156 132.2517 027.6882 00.08113292    01

# Worst residual: 19.41 km
# MJD 60280.000000 (2023 Dec  2  0:00)
1972-073A = IMP-7 = NORAD 06197
1 06197U 72073A   23336.49919926  .00000000  00000-0  00000-0 0 18145
2 06197 018.9518 103.7312 3585371 132.6518 057.0161 00.08135387    07

# Worst residual: 14.81 km
# MJD 60281.000000 (2023 Dec  3  0:00)
1972-073A = IMP-7 = NORAD 06197
1 06197U 72073A   23337.49919926  .00000000  00000-0  00000-0 0 18146
2 06197 018.9869 103.5663 3567897 132.3840 087.0642 00.08179734    02

# Worst residual: 9.03 km
# MJD 60282.000000 (2023 Dec  4  0:00)
1972-073A = IMP-7 = NORAD 06197
1 06197U 72073A   23338.49919926  .00000000  00000-0  00000-0 0 18147
2 06197 019.0276 103.4779 3567359 132.0089 117.2307 00.08210910    04

# Worst residual: 7.70 km
# MJD 60283.000000 (2023 Dec  5  0:00)
1972-073A = IMP-7 = NORAD 06197
1 06197U 72073A   23339.49919926  .00000000  00000-0  00000-0 0 18148
2 06197 019.0621 103.4198 3575225 131.7490 147.2690 00.08229236    05

# Worst residual: 5.50 km
# MJD 60284.000000 (2023 Dec  6  0:00)
1972-073A = IMP-7 = NORAD 06197
1 06197U 72073A   23340.49919926  .00000000  00000-0  00000-0 0 18140
2 06197 019.0908 103.3573 3586459 131.6356 177.1493 00.08241024    02

# Worst residual: 3.99 km
# MJD 60285.000000 (2023 Dec  7  0:00)
1972-073A = IMP-7 = NORAD 06197
1 06197U 72073A   23341.49919926  .00000000  00000-0  00000-0 0 18141
2 06197 019.1170 103.2773 3600704 131.6574 206.9048 00.08252721    00

# Worst residual: 7.28 km
# MJD 60286.000000 (2023 Dec  8  0:00)
1972-073A = IMP-7 = NORAD 06197
1 06197U 72073A   23342.49919926  .00000000  00000-0  00000-0 0 18142
2 06197 019.1518 103.1648 3617982 131.8307 236.5772 00.08268271    08

# Worst residual: 11.17 km
# MJD 60287.000000 (2023 Dec  9  0:00)
1972-073A = IMP-7 = NORAD 06197
1 06197U 72073A   23343.49919926  .00000000  00000-0  00000-0 0 18143
2 06197 019.2077 103.0344 3637524 132.1478 266.2274 00.08288700    04

# Worst residual: 17.27 km
# MJD 60288.000000 (2023 Dec 10  0:00)
1972-073A = IMP-7 = NORAD 06197
1 06197U 72073A   23344.49919926  .00000000  00000-0  00000-0 0 18144
2 06197 019.2978 102.9432 3657485 132.4876 295.9841 00.08305809    02

# Worst residual: 34.70 km
# MJD 60289.000000 (2023 Dec 11  0:00)
1972-073A = IMP-7 = NORAD 06197
1 06197U 72073A   23345.49919926  .00000000  00000-0  00000-0 0 18145
2 06197 019.4114 103.0189 3685718 132.5476 326.0227 00.08289378    00

# Worst residual: 60.01 km
# MJD 60290.000000 (2023 Dec 12  0:00)
1972-073A = IMP-7 = NORAD 06197
1 06197U 72073A   23346.49919926  .00000000  00000-0  00000-0 0 18146
2 06197 019.4637 103.3246 3749846 132.4927 355.9363 00.08181928    04

# Worst residual: 54.86 km
# MJD 60291.000000 (2023 Dec 13  0:00)
1972-073A = IMP-7 = NORAD 06197
1 06197U 72073A   23347.49919926  .00000000  00000-0  00000-0 0 18147
2 06197 019.4124 103.3871 3780621 133.5654 024.6178 00.08086063    02

# Worst residual: 47.33 km
# MJD 60292.000000 (2023 Dec 14  0:00)
1972-073A = IMP-7 = NORAD 06197
1 06197U 72073A   23348.49919926  .00000000  00000-0  00000-0 0 18148
2 06197 019.4382 103.1936 3715715 133.8028 054.4181 00.08181706    03
